start=new Date('2023-01-10T00:00:00.000Z').valueOf();
sats=[{"OBJECT_TYPE":"PAYLOAD","INCLINATION":"53.0524","MEAN_MOTION":"15.06395504","MEAN_MOTION_DOT":"0.00001205","ELEMENT_SET_NO":"999","MEAN_ELEMENT_THEORY":"SGP4","ARG_OF_PERICENTER":"102.6924","NORAD_CAT_ID":"48323","DECAY_DATE":null,"LAUNCH_DATE":"2021-04-29","REV_AT_EPOCH":"9453","SEMIMAJOR_AXIS":"6925.362","EPOCH":"2023-01-09T16:10:28.794432","EPHEMERIS_TYPE":"0","SITE":"AFETR","TLE_LINE1":"1 48323U 21036AZ  23009.67394438  .00001205  00000-0  99785-4 0  9990","CLASSIFICATION_TYPE":"U","PERIOD":"95.592","REF_FRAME":"TEME","APOAPSIS":"548.119","MEAN_ANOMALY":"257.4209","ECCENTRICITY":"0.00012870","TIME_SYSTEM":"UTC","MEAN_MOTION_DDOT":"0.0000000000000","CENTER_NAME":"EARTH","FILE":"3737345","COUNTRY_CODE":"US","RA_OF_ASC_NODE":"246.6899","OBJECT_NAME":"STARLINK-2515","TLE_LINE2":"2 48323  53.0524 246.6899 0001287 102.6924 257.4209 15.06395504 94535","RCS_SIZE":"LARGE","PERIAPSIS":"546.336","OBJECT_ID":"2021-036AZ","GP_ID":"222575722","BSTAR":"0.00009978500000"},{"INCLINATION":"53.0511","OBJECT_TYPE":"PAYLOAD","MEAN_ELEMENT_THEORY":"SGP4","ARG_OF_PERICENTER":"105.7878","ELEMENT_SET_NO":"999","MEAN_MOTION":"15.06419897","MEAN_MOTION_DOT":"0.00005739","EPHEMERIS_TYPE":"0","SEMIMAJOR_AXIS":"6925.288","EPOCH":"2023-01-09T16:03:48.929184","SITE":"AFETR","LAUNCH_DATE":"2021-04-29","DECAY_DATE":null,"REV_AT_EPOCH":"9453","NORAD_CAT_ID":"48324","PERIOD":"95.591","CLASSIFICATION_TYPE":"U","TLE_LINE1":"1 48324U 21036BA  23009.66931631  .00005739  00000-0  40366-3 0  9998","REF_FRAME":"TEME","APOAPSIS":"549.337","MEAN_ANOMALY":"254.3459","FILE":"3737527","MEAN_MOTION_DDOT":"0.0000000000000","CENTER_NAME":"EARTH","TIME_SYSTEM":"UTC","ECCENTRICITY":"0.00031540","TLE_LINE2":"2 48324  53.0511 246.7037 0003154 105.7878 254.3459 15.06419897 94539","PERIAPSIS":"544.968","RCS_SIZE":"LARGE","RA_OF_ASC_NODE":"246.7037","COUNTRY_CODE":"US","OBJECT_NAME":"STARLINK-2527","BSTAR":"0.00040366000000","GP_ID":"222579909","OBJECT_ID":"2021-036BA"},{"CLASSIFICATION_TYPE":"U","PERIOD":"95.592","TLE_LINE1":"1 48325U 21036BB  23009.66657355  .00004926  00000-0  34938-3 0  9992","DECAY_DATE":null,"LAUNCH_DATE":"2021-04-29","REV_AT_EPOCH":"9453","SITE":"AFETR","SEMIMAJOR_AXIS":"6925.349","EPOCH":"2023-01-09T15:59:51.954720","EPHEMERIS_TYPE":"0","NORAD_CAT_ID":"48325","ARG_OF_PERICENTER":"75.5921","MEAN_ELEMENT_THEORY":"SGP4","MEAN_MOTION":"15.06399951","MEAN_MOTION_DOT":"0.00004926","ELEMENT_SET_NO":"999","INCLINATION":"53.0530","OBJECT_TYPE":"PAYLOAD","GP_ID":"222579905","BSTAR":"0.00034938000000","OBJECT_ID":"2021-036BB","OBJECT_NAME":"STARLINK-2495","COUNTRY_CODE":"US","RA_OF_ASC_NODE":"246.7273","PERIAPSIS":"546.153","TLE_LINE2":"2 48325  53.0530 246.7273 0001531  75.5921 284.5238 15.06399951 94531","RCS_SIZE":"LARGE","CENTER_NAME":"EARTH","MEAN_MOTION_DDOT":"0.0000000000000","FILE":"3737527","ECCENTRICITY":"0.00015310","TIME_SYSTEM":"UTC","MEAN_ANOMALY":"284.5238","APOAPSIS":"548.274","REF_FRAME":"TEME"},{"MEAN_ANOMALY":"277.5494","APOAPSIS":"548.220","REF_FRAME":"TEME","TIME_SYSTEM":"UTC","ECCENTRICITY":"0.00015120","CENTER_NAME":"EARTH","MEAN_MOTION_DDOT":"0.0000000000000","FILE":"3737263","RA_OF_ASC_NODE":"247.9366","COUNTRY_CODE":"US","OBJECT_NAME":"STARLINK-2498","RCS_SIZE":"LARGE","TLE_LINE2":"2 48326  53.0510 247.9366 0001512  82.5666 277.5494 15.06413323 93905","PERIAPSIS":"546.126","OBJECT_ID":"2021-036BC","GP_ID":"222543564","BSTAR":"0.00052974000000","OBJECT_TYPE":"PAYLOAD","INCLINATION":"53.0510","MEAN_MOTION_DOT":"0.00007621","MEAN_MOTION":"15.06413323","ELEMENT_SET_NO":"999","ARG_OF_PERICENTER":"82.5666","MEAN_ELEMENT_THEORY":"SGP4","NORAD_CAT_ID":"48326","DECAY_DATE":null,"LAUNCH_DATE":"2021-04-29","REV_AT_EPOCH":"9390","SITE":"AFETR","EPOCH":"2023-01-09T09:32:24.369792","SEMIMAJOR_AXIS":"6925.308","EPHEMERIS_TYPE":"0","TLE_LINE1":"1 48326U 21036BC  23009.39750428  .00007621  00000-0  52974-3 0  9993","CLASSIFICATION_TYPE":"U","PERIOD":"95.591"},{"OBJECT_ID":"2021-036BD","BSTAR":"0.00092213000000","GP_ID":"222541812","TLE_LINE2":"2 48327  53.0520 247.9568 0001439  72.6226 287.4920 15.06385904 93908","PERIAPSIS":"546.260","RCS_SIZE":"LARGE","COUNTRY_CODE":"US","OBJECT_NAME":"STARLINK-2502","RA_OF_ASC_NODE":"247.9568","TIME_SYSTEM":"UTC","ECCENTRICITY":"0.00014390","FILE":"3737263","MEAN_MOTION_DDOT":"0.0000000000000","CENTER_NAME":"EARTH","APOAPSIS":"548.253","REF_FRAME":"TEME","MEAN_ANOMALY":"287.4920","TLE_LINE1":"1 48327U 21036BD  23009.39381964  .00013475  00000-0  92213-3 0  9993","PERIOD":"95.593","CLASSIFICATION_TYPE":"U","NORAD_CAT_ID":"48327","SEMIMAJOR_AXIS":"6925.392","EPHEMERIS_TYPE":"0","EPOCH":"2023-01-09T09:27:06.016896","SITE":"AFETR","LAUNCH_DATE":"2021-04-29","DECAY_DATE":null,"REV_AT_EPOCH":"9390","ELEMENT_SET_NO":"999","MEAN_MOTION":"15.06385904","MEAN_MOTION_DOT":"0.00013475","MEAN_ELEMENT_THEORY":"SGP4","ARG_OF_PERICENTER":"72.6226","OBJECT_TYPE":"PAYLOAD","INCLINATION":"53.0520"},{"TLE_LINE1":"1 48328U 21036BE  23009.38918947  .00008975  00000-0  62046-3 0  9990","CLASSIFICATION_TYPE":"U","PERIOD":"95.591","NORAD_CAT_ID":"48328","DECAY_DATE":null,"REV_AT_EPOCH":"9390","LAUNCH_DATE":"2021-04-29","EPOCH":"2023-01-09T09:20:25.970208","SEMIMAJOR_AXIS":"6925.309","EPHEMERIS_TYPE":"0","SITE":"AFETR","MEAN_MOTION_DOT":"0.00008975","MEAN_MOTION":"15.06413017","ELEMENT_SET_NO":"999","MEAN_ELEMENT_THEORY":"SGP4","ARG_OF_PERICENTER":"72.2544","OBJECT_TYPE":"PAYLOAD","INCLINATION":"53.0509","OBJECT_ID":"2021-036BE","GP_ID":"222542062","BSTAR":"0.00062046000000","COUNTRY_CODE":"US","RA_OF_ASC_NODE":"247.9558","OBJECT_NAME":"STARLINK-2504","PERIAPSIS":"546.186","TLE_LINE2":"2 48328  53.0509 247.9558 0001426  72.2544 287.8600 15.06413017 93906","RCS_SIZE":"LARGE","ECCENTRICITY":"0.00014260","TIME_SYSTEM":"UTC","MEAN_MOTION_DDOT":"0.0000000000000","CENTER_NAME":"EARTH","FILE":"3737263","REF_FRAME":"TEME","APOAPSIS":"548.161","MEAN_ANOMALY":"287.8600"},{"NORAD_CAT_ID":"48329","DECAY_DATE":null,"LAUNCH_DATE":"2021-04-29","REV_AT_EPOCH":"9453","SEMIMAJOR_AXIS":"6925.496","EPHEMERIS_TYPE":"0","EPOCH":"2023-01-09T15:38:39.274944","SITE":"AFETR","TLE_LINE1":"1 48329U 21036BF  23009.65184346  .00014540  00000-0  99431-3 0  9992","CLASSIFICATION_TYPE":"U","PERIOD":"95.595","OBJECT_TYPE":"PAYLOAD","INCLINATION":"53.0530","MEAN_MOTION_DOT":"0.00014540","MEAN_MOTION":"15.06351794","ELEMENT_SET_NO":"999","MEAN_ELEMENT_THEORY":"SGP4","ARG_OF_PERICENTER":"76.1917","RA_OF_ASC_NODE":"246.7893","COUNTRY_CODE":"US","OBJECT_NAME":"STARLINK-2510","TLE_LINE2":"2 48329  53.0530 246.7893 0001167  76.1917 283.9202 15.06351794 94537","PERIAPSIS":"546.553","RCS_SIZE":"LARGE","OBJECT_ID":"2021-036BF","GP_ID":"222515618","BSTAR":"0.00099431000000","APOAPSIS":"548.170","REF_FRAME":"TEME","MEAN_ANOMALY":"283.9202","TIME_SYSTEM":"UTC","ECCENTRICITY":"0.00011670","MEAN_MOTION_DDOT":"0.0000000000000","CENTER_NAME":"EARTH","FILE":"3737062"},{"APOAPSIS":"548.225","REF_FRAME":"TEME","MEAN_ANOMALY":"287.9427","ECCENTRICITY":"0.00014530","TIME_SYSTEM":"UTC","MEAN_MOTION_DDOT":"0.0000000000000","CENTER_NAME":"EARTH","FILE":"3737263","OBJECT_NAME":"STARLINK-2501","COUNTRY_CODE":"US","RA_OF_ASC_NODE":"248.0015","TLE_LINE2":"2 48330  53.0531 248.0015 0001453  72.1721 287.9427 15.06398354 93904","RCS_SIZE":"LARGE","PERIAPSIS":"546.212","OBJECT_ID":"2021-036BG","GP_ID":"222543064","BSTAR":"0.00001324400000","OBJECT_TYPE":"PAYLOAD","INCLINATION":"53.0531","MEAN_MOTION_DOT":"-0.00000084","MEAN_MOTION":"15.06398354","ELEMENT_SET_NO":"999","MEAN_ELEMENT_THEORY":"SGP4","ARG_OF_PERICENTER":"72.1721","NORAD_CAT_ID":"48330","DECAY_DATE":null,"LAUNCH_DATE":"2021-04-29","REV_AT_EPOCH":"9390","SEMIMAJOR_AXIS":"6925.354","EPOCH":"2023-01-09T09:11:09.935232","EPHEMERIS_TYPE":"0","SITE":"AFETR","TLE_LINE1":"1 48330U 21036BG  23009.38275388 -.00000084  00000-0  13244-4 0  9999","CLASSIFICATION_TYPE":"U","PERIOD":"95.592"},{"INCLINATION":"53.0533","OBJECT_TYPE":"PAYLOAD","ARG_OF_PERICENTER":"43.5338","MEAN_ELEMENT_THEORY":"SGP4","MEAN_MOTION":"15.06399329","MEAN_MOTION_DOT":"0.00002694","ELEMENT_SET_NO":"999","DECAY_DATE":null,"LAUNCH_DATE":"2021-04-29","REV_AT_EPOCH":"9453","SITE":"AFETR","SEMIMAJOR_AXIS":"6925.351","EPOCH":"2023-01-09T15:28:01.082208","EPHEMERIS_TYPE":"0","NORAD_CAT_ID":"48331","CLASSIFICATION_TYPE":"U","PERIOD":"95.592","TLE_LINE1":"1 48331U 21036BH  23009.64445697  .00002694  00000-0  19969-3 0  9998","MEAN_ANOMALY":"316.5820","REF_FRAME":"TEME","APOAPSIS":"548.697","CENTER_NAME":"EARTH","MEAN_MOTION_DDOT":"0.0000000000000","FILE":"3737073","ECCENTRICITY":"0.00021390","TIME_SYSTEM":"UTC","OBJECT_NAME":"STARLINK-2514","COUNTRY_CODE":"US","RA_OF_ASC_NODE":"246.8308","RCS_SIZE":"LARGE","TLE_LINE2":"2 48331  53.0533 246.8308 0002139  43.5338 316.5820 15.06399329 94535","PERIAPSIS":"545.734","GP_ID":"222515842","BSTAR":"0.00019969000000","OBJECT_ID":"2021-036BH"},{"MEAN_ELEMENT_THEORY":"SGP4","ARG_OF_PERICENTER":"68.8955","MEAN_MOTION_DOT":"0.00005221","MEAN_MOTION":"15.06406148","ELEMENT_SET_NO":"999","INCLINATION":"53.0523","OBJECT_TYPE":"PAYLOAD","CLASSIFICATION_TYPE":"U","PERIOD":"95.592","TLE_LINE1":"1 48332U 21036BJ  23009.37812803  .00005221  00000-0  36904-3 0  9993","DECAY_DATE":null,"LAUNCH_DATE":"2021-04-29","REV_AT_EPOCH":"9390","EPOCH":"2023-01-09T09:04:30.261792","SEMIMAJOR_AXIS":"6925.330","EPHEMERIS_TYPE":"0","SITE":"AFETR","NORAD_CAT_ID":"48332","MEAN_MOTION_DDOT":"0.0000000000000","CENTER_NAME":"EARTH","FILE":"3737263","TIME_SYSTEM":"UTC","ECCENTRICITY":"0.00010840","APOAPSIS":"547.945","REF_FRAME":"TEME","MEAN_ANOMALY":"291.2150","GP_ID":"222542563","BSTAR":"0.00036904000000","OBJECT_ID":"2021-036BJ","OBJECT_NAME":"STARLINK-2511","COUNTRY_CODE":"US","RA_OF_ASC_NODE":"248.0034","TLE_LINE2":"2 48332  53.0523 248.0034 0001084  68.8955 291.2150 15.06406148 93901","RCS_SIZE":"LARGE","PERIAPSIS":"546.444"}];
